CCSDS_OMM_VERS = 2.0
CREATION_DATE  = 
ORIGINATOR     = 

OBJECT_NAME    = IDEFIX & ARIANE 42P R/B
OBJECT_ID      = 2002-021B
CENTER_NAME    = EARTH
REF_FRAME      = TEME
TIME_SYSTEM    = UTC
MEAN_ELEMENT_THEORY = SGP/SGP4

EPOCH          = 2026-02-20T20:30:57.769920
MEAN_MOTION    = 14.31013136
ECCENTRICITY   = .0010769
INCLINATION    = 98.5855
RA_OF_ASC_NODE = 350.6641
ARG_OF_PERICENTER = 234.6576
MEAN_ANOMALY   = 125.3601

EPHEMERIS_TYPE = 0
CLASSIFICATION_TYPE = U
NORAD_CAT_ID   = 27422
ELEMENT_SET_NO = 999
REV_AT_EPOCH   = 24161
BSTAR          = .1155E-3
MEAN_MOTION_DOT = .26E-5
MEAN_MOTION_DDOT = 0

CCSDS_OMM_VERS = 2.0
CREATION_DATE  = 
ORIGINATOR     = 

OBJECT_NAME    = AQUA
OBJECT_ID      = 2002-022A
CENTER_NAME    = EARTH
REF_FRAME      = TEME
TIME_SYSTEM    = UTC
MEAN_ELEMENT_THEORY = SGP/SGP4

EPOCH          = 2026-02-21T04:52:31.260576
MEAN_MOTION    = 14.61932386
ECCENTRICITY   = .0001051
INCLINATION    = 98.4146
RA_OF_ASC_NODE = 19.2718
ARG_OF_PERICENTER = 47.5112
MEAN_ANOMALY   = 82.5840

EPHEMERIS_TYPE = 0
CLASSIFICATION_TYPE = U
NORAD_CAT_ID   = 27424
ELEMENT_SET_NO = 999
REV_AT_EPOCH   = 26632
BSTAR          = .19287E-3
MEAN_MOTION_DOT = .916E-5
MEAN_MOTION_DDOT = 0

CCSDS_OMM_VERS = 2.0
CREATION_DATE  = 
ORIGINATOR     = 

OBJECT_NAME    = CZ-4B R/B
OBJECT_ID      = 2002-024C
CENTER_NAME    = EARTH
REF_FRAME      = TEME
TIME_SYSTEM    = UTC
MEAN_ELEMENT_THEORY = SGP/SGP4

EPOCH          = 2026-02-21T04:03:01.346112
MEAN_MOTION    = 14.14544541
ECCENTRICITY   = .0051056
INCLINATION    = 98.8879
RA_OF_ASC_NODE = 105.6558
ARG_OF_PERICENTER = 70.5237
MEAN_ANOMALY   = 357.8364

EPHEMERIS_TYPE = 0
CLASSIFICATION_TYPE = U
NORAD_CAT_ID   = 27432
ELEMENT_SET_NO = 999
REV_AT_EPOCH   = 22690
BSTAR          = .33851E-4
MEAN_MOTION_DOT = .22E-6
MEAN_MOTION_DDOT = 0

CCSDS_OMM_VERS = 2.0
CREATION_DATE  = 
ORIGINATOR     = 

OBJECT_NAME    = MIDORI II (ADEOS-II)
OBJECT_ID      = 2002-056A
CENTER_NAME    = EARTH
REF_FRAME      = TEME
TIME_SYSTEM    = UTC
MEAN_ELEMENT_THEORY = SGP/SGP4

EPOCH          = 2026-02-20T20:41:57.437376
MEAN_MOTION    = 14.29271485
ECCENTRICITY   = .0002076
INCLINATION    = 98.7740
RA_OF_ASC_NODE = 10.2272
ARG_OF_PERICENTER = 66.2064
MEAN_ANOMALY   = 293.9335

EPHEMERIS_TYPE = 0
CLASSIFICATION_TYPE = U
NORAD_CAT_ID   = 27597
ELEMENT_SET_NO = 999
REV_AT_EPOCH   = 20789
BSTAR          = .11689E-3
MEAN_MOTION_DOT = .252E-5
MEAN_MOTION_DDOT = 0

CCSDS_OMM_VERS = 2.0
CREATION_DATE  = 
ORIGINATOR     = 

OBJECT_NAME    = H-2A R/B
OBJECT_ID      = 2002-056E
CENTER_NAME    = EARTH
REF_FRAME      = TEME
TIME_SYSTEM    = UTC
MEAN_ELEMENT_THEORY = SGP/SGP4

EPOCH          = 2026-02-20T22:52:04.138752
MEAN_MOTION    = 14.33748323
ECCENTRICITY   = .0069468
INCLINATION    = 98.3173
RA_OF_ASC_NODE = 12.9589
ARG_OF_PERICENTER = 210.6907
MEAN_ANOMALY   = 181.7080

EPHEMERIS_TYPE = 0
CLASSIFICATION_TYPE = U
NORAD_CAT_ID   = 27601
ELEMENT_SET_NO = 999
REV_AT_EPOCH   = 21171
BSTAR          = .10213E-3
MEAN_MOTION_DOT = .249E-5
MEAN_MOTION_DDOT = 0

CCSDS_OMM_VERS = 2.0
CREATION_DATE  = 
ORIGINATOR     = 

OBJECT_NAME    = CZ-4B R/B
OBJECT_ID      = 2003-049C
CENTER_NAME    = EARTH
REF_FRAME      = TEME
TIME_SYSTEM    = UTC
MEAN_ELEMENT_THEORY = SGP/SGP4

EPOCH          = 2026-02-20T22:45:01.152000
MEAN_MOTION    = 14.55001409
ECCENTRICITY   = .0047034
INCLINATION    = 98.6863
RA_OF_ASC_NODE = 46.1983
ARG_OF_PERICENTER = 283.2464
MEAN_ANOMALY   = 76.3488

EPHEMERIS_TYPE = 0
CLASSIFICATION_TYPE = U
NORAD_CAT_ID   = 28059
ELEMENT_SET_NO = 999
REV_AT_EPOCH   = 18416
BSTAR          = .10114E-3
MEAN_MOTION_DOT = .39E-5
MEAN_MOTION_DDOT = 0

CCSDS_OMM_VERS = 2.0
CREATION_DATE  = 
ORIGINATOR     = 

OBJECT_NAME    = CZ-2C R/B
OBJECT_ID      = 2004-012C
CENTER_NAME    = EARTH
REF_FRAME      = TEME
TIME_SYSTEM    = UTC
MEAN_ELEMENT_THEORY = SGP/SGP4

EPOCH          = 2026-02-21T03:50:40.910208
MEAN_MOTION    = 15.62474477
ECCENTRICITY   = .0014596
INCLINATION    = 97.7266
RA_OF_ASC_NODE = 115.9101
ARG_OF_PERICENTER = 15.0376
MEAN_ANOMALY   = 345.1312

EPHEMERIS_TYPE = 0
CLASSIFICATION_TYPE = U
NORAD_CAT_ID   = 28222
ELEMENT_SET_NO = 999
REV_AT_EPOCH   = 20169
BSTAR          = .55501E-3
MEAN_MOTION_DOT = .49646E-3
MEAN_MOTION_DDOT = 0

CCSDS_OMM_VERS = 2.0
CREATION_DATE  = 
ORIGINATOR     = 

OBJECT_NAME    = SL-16 R/B
OBJECT_ID      = 2004-021B
CENTER_NAME    = EARTH
REF_FRAME      = TEME
TIME_SYSTEM    = UTC
MEAN_ELEMENT_THEORY = SGP/SGP4

EPOCH          = 2026-02-20T23:32:38.952096
MEAN_MOTION    = 14.14597417
ECCENTRICITY   = .0003288
INCLINATION    = 70.9989
RA_OF_ASC_NODE = 267.5591
ARG_OF_PERICENTER = 48.5065
MEAN_ANOMALY   = 311.6339

EPHEMERIS_TYPE = 0
CLASSIFICATION_TYPE = U
NORAD_CAT_ID   = 28353
ELEMENT_SET_NO = 999
REV_AT_EPOCH   = 12047
BSTAR          = .15232E-3
MEAN_MOTION_DOT = .245E-5
MEAN_MOTION_DDOT = 0

CCSDS_OMM_VERS = 2.0
CREATION_DATE  = 
ORIGINATOR     = 

OBJECT_NAME    = CZ-4B R/B
OBJECT_ID      = 2004-035C
CENTER_NAME    = EARTH
REF_FRAME      = TEME
TIME_SYSTEM    = UTC
MEAN_ELEMENT_THEORY = SGP/SGP4

EPOCH          = 2026-02-21T00:33:45.958176
MEAN_MOTION    = 15.28731307
ECCENTRICITY   = .0033113
INCLINATION    = 97.3522
RA_OF_ASC_NODE = 86.4677
ARG_OF_PERICENTER = 30.8170
MEAN_ANOMALY   = 329.5005

EPHEMERIS_TYPE = 0
CLASSIFICATION_TYPE = U
NORAD_CAT_ID   = 28415
ELEMENT_SET_NO = 999
REV_AT_EPOCH   = 17736
BSTAR          = .26907E-3
MEAN_MOTION_DOT = .7563E-4
MEAN_MOTION_DDOT = 0

CCSDS_OMM_VERS = 2.0
CREATION_DATE  = 
ORIGINATOR     = 

OBJECT_NAME    = CZ-2C R/B
OBJECT_ID      = 2004-046B
CENTER_NAME    = EARTH
REF_FRAME      = TEME
TIME_SYSTEM    = UTC
MEAN_ELEMENT_THEORY = SGP/SGP4

EPOCH          = 2026-02-21T03:32:51.926208
MEAN_MOTION    = 14.26985956
ECCENTRICITY   = .0138871
INCLINATION    = 98.1991
RA_OF_ASC_NODE = 328.1599
ARG_OF_PERICENTER = 203.3652
MEAN_ANOMALY   = 156.1180

EPHEMERIS_TYPE = 0
CLASSIFICATION_TYPE = U
NORAD_CAT_ID   = 28480
ELEMENT_SET_NO = 999
REV_AT_EPOCH   = 10614
BSTAR          = .56197E-4
MEAN_MOTION_DOT = .11E-5
MEAN_MOTION_DDOT = 0

CCSDS_OMM_VERS = 2.0
CREATION_DATE  = 
ORIGINATOR     = 

OBJECT_NAME    = ARIANE 5 R/B
OBJECT_ID      = 2004-049H
CENTER_NAME    = EARTH
REF_FRAME      = TEME
TIME_SYSTEM    = UTC
MEAN_ELEMENT_THEORY = SGP/SGP4

EPOCH          = 2026-02-20T23:49:13.302048
MEAN_MOTION    = 14.85231143
ECCENTRICITY   = .0085052
INCLINATION    = 98.2598
RA_OF_ASC_NODE = 219.8277
ARG_OF_PERICENTER = 45.8361
MEAN_ANOMALY   = 314.9803

EPHEMERIS_TYPE = 0
CLASSIFICATION_TYPE = U
NORAD_CAT_ID   = 28499
ELEMENT_SET_NO = 999
REV_AT_EPOCH   = 14331
BSTAR          = .87651E-4
MEAN_MOTION_DOT = .737E-5
MEAN_MOTION_DDOT = 0

CCSDS_OMM_VERS = 2.0
CREATION_DATE  = 
ORIGINATOR     = 

OBJECT_NAME    = CZ-2D R/B
OBJECT_ID      = 2005-024B
CENTER_NAME    = EARTH
REF_FRAME      = TEME
TIME_SYSTEM    = UTC
MEAN_ELEMENT_THEORY = SGP/SGP4

EPOCH          = 2026-02-21T00:35:05.574912
MEAN_MOTION    = 15.58566742
ECCENTRICITY   = .0007561
INCLINATION    = 97.3611
RA_OF_ASC_NODE = 66.5795
ARG_OF_PERICENTER = 86.6025
MEAN_ANOMALY   = 273.6096

EPHEMERIS_TYPE = 0
CLASSIFICATION_TYPE = U
NORAD_CAT_ID   = 28738
ELEMENT_SET_NO = 999
REV_AT_EPOCH   = 13718
BSTAR          = .48748E-3
MEAN_MOTION_DOT = .3735E-3
MEAN_MOTION_DDOT = 0

