IDEFIX & ARIANE 42P R/B 
1 27422U 02021B   26051.85483530  .00000260  00000+0  11550-3 0  9994
2 27422  98.5855 350.6641 0010769 234.6576 125.3601 14.31013136241615
AQUA                    
1 27424U 02022A   26052.20313959  .00000916  00000+0  19287-3 0  9997
2 27424  98.4146  19.2718 0001051  47.5112  82.5840 14.61932386266327
CZ-4B R/B               
1 27432U 02024C   26052.16876558  .00000022  00000+0  33851-4 0  9994
2 27432  98.8879 105.6558 0051056  70.5237 357.8364 14.14544541226908
MIDORI II (ADEOS-II)    
1 27597U 02056A   26051.86247034  .00000252  00000+0  11689-3 0  9997
2 27597  98.7740  10.2272 0002076  66.2064 293.9335 14.29271485207893
H-2A R/B                
1 27601U 02056E   26051.95282568  .00000249  00000+0  10213-3 0  9992
2 27601  98.3173  12.9589 0069468 210.6907 181.7080 14.33748323211716
CZ-4B R/B               
1 28059U 03049C   26051.94793000  .00000390  00000+0  10114-3 0  9997
2 28059  98.6863  46.1983 0047034 283.2464  76.3488 14.55001409184169
CZ-2C R/B               
1 28222U 04012C   26052.16019572  .00049646  00000+0  55501-3 0  9996
2 28222  97.7266 115.9101 0014596  15.0376 345.1312 15.62474477201694
SL-16 R/B               
1 28353U 04021B   26051.98100639  .00000245  00000+0  15232-3 0  9994
2 28353  70.9989 267.5591 0003288  48.5065 311.6339 14.14597417120472
CZ-4B R/B               
1 28415U 04035C   26052.02344859  .00007563  00000+0  26907-3 0  9999
2 28415  97.3522  86.4677 0033113  30.8170 329.5005 15.28731307177363
CZ-2C R/B               
1 28480U 04046B   26052.14782322  .00000110  00000+0  56197-4 0  9993
2 28480  98.1991 328.1599 0138871 203.3652 156.1180 14.26985956106146
ARIANE 5 R/B            
1 28499U 04049H   26051.99251507  .00000737  00000+0  87651-4 0  9998
2 28499  98.2598 219.8277 0085052  45.8361 314.9803 14.85231143143310
CZ-2D R/B               
1 28738U 05024B   26052.02437008  .00037350  00000+0  48748-3 0  9999
2 28738  97.3611  66.5795 0007561  86.6025 273.6096 15.58566742137183
